#cP2026  4 30  0  0  0.00000000      96 ORBIT IGc20 HLM  IGS
## 2416 345600.00000000   900.00000000 61160 0.0000000000000
+   31   G01G02G03G04G05G06G07G08G09G10G11G12G14G15G16G17G18
+        G19G20G21G22G23G24G25G26G27G28G29G30G31G32  0  0  0
+          0  0  0  0  0  0  0  0  0  0  0  0  0  0  0  0  0
+          0  0  0  0  0  0  0  0  0  0  0  0  0  0  0  0  0
+          0  0  0  0  0  0  0  0  0  0  0  0  0  0  0  0  0
++         2  1  2  1  2  1  1  1  1  2  1  2  2  2  2  2  2
++         2  2  0  2  2  2  2  2  1  2  2  2  1  1  0  0  0
++         0  0  0  0  0  0  0  0  0  0  0  0  0  0  0  0  0
++         0  0  0  0  0  0  0  0  0  0  0  0  0  0  0  0  0
++         0  0  0  0  0  0  0  0  0  0  0  0  0  0  0  0  0
%c G  cc GPS ccc cccc cccc cccc cccc ccccc ccccc ccccc ccccc
%c cc cc ccc ccc cccc cccc cccc cccc ccccc ccccc ccccc ccccc
%f  1.2500000  1.025000000  0.00000000000  0.000000000000000
%f  0.0000000  0.000000000  0.00000000000  0.000000000000000
%i    0    0    0    0      0      0      0      0         0
%i    0    0    0    0      0      0      0      0         0
/* FINAL ORBIT COMBINATION FROM WEIGHTED AVERAGE OF:        
/* cod emr esa gfz grg jgx jpl mit ngs sio                  
/* REFERENCED TO IGS TIME (IGST) AND TO WEIGHTED MEAN POLE: 
/* PCV:IGS20_2415 OL/AL:FES2014b NONE     Y  ORB:CMB CLK:CMB
*  2026  4 30  9 45  0.00000000
PG01   8322.271954 -18334.373649 -17289.305601    286.148987  3  4  5  63       
PG02  16276.254429 -19088.363997  -7396.747738     89.156907  2  3  4  67       
PG03  -1903.672851 -16492.784218 -20960.157547    483.566442  5  5  4  52       
PG04    778.611820 -26411.919227  -1462.545495     55.279346  4  5  2  58       
PG05 -13325.418712   9234.506146  20872.707254   -232.410788  2  5  4  52       
PG06 -21970.989258   1774.372961 -14871.793973   -607.410766  5  4  4  49       
PG07  -7879.285943 -13621.372871  22013.911252   -179.197755  2  3  1  54       
PG08   7210.037289 -21783.862920  12758.224191    452.169905  2  4  3  74       
PG09  -7450.305384 -24065.976985   8197.052389    755.082838  4  3  5  85       
PG10  24118.274008  11295.901170  -2162.511071   -587.568342  7  5  4  80       
PG11 -23663.609380  11683.161852  -2551.957461   -356.037248  5  2  4  70       
PG12  -1810.066926  16289.810657 -21188.407935   -607.879786  5  3  3  68       
PG14 -23349.462407 -13003.105661    597.818642    744.915521  7  8  5  77       
PG15  -3684.922086  23157.451025  11882.776359    407.512555  4  4  4  76       
PG16  18487.629016  -3667.176888  18491.530453    254.434646  5  5  5  77       
PG17 -12838.638944 -13495.894924 -18461.616369   -124.629978  4  6  2  62       
PG18   9594.021657  11681.633433  21901.747516   -364.168234  5  3  5  70       
PG19 -15117.913359  -3221.741086 -21694.606065    698.521017  5  5  3  65       
PG20 -10638.669902  17602.124355  16886.606154    132.805998  4  5  3  76       
PG21 -20379.651248   2286.446191  16907.640284 999999.999999 11 11  3           
PG22 -23537.291184 -10432.968416  -5487.041368    -10.281654  5  6  5  66       
PG23  18571.114858  16452.240994   9929.956513    642.067608  8  5  6 101       
PG24 -11358.718230  20776.540309 -12199.696853    -11.903778  4  4  6  74       
PG25  12001.011630  18306.400728 -15600.102631    426.253176  7  5  7  61       
PG26  24782.237837   2069.873264   9635.611771   -359.771897  7  5  5  77       
PG27  12912.238109 -12289.004864  19184.892628   -130.050553  3  3  3  77       
PG28  21666.548757  -1822.575449 -15259.948768   -542.316620  6  4  4  39       
PG29   4356.624270  25096.417035   7191.020120   -330.516899  2  3  4  84       
PG30 -18493.469394  -4466.196154  18839.409961    205.639679  4  4  3  67       
PG31  24267.155100  -8884.150182  -7073.192578   -152.194778  3  2  3  63       
PG32  14490.281318   8486.742992 -20345.421922     28.913133  5  4  4  69       
*  2026  4 30 10  0  0.00000000
PG01  10030.134046 -19124.937625 -15417.231643    286.140969  3  3  4  67       
PG02  17033.600605 -19338.346926  -4617.765382     89.163881  3  3  4  52       
PG03    258.614092 -15463.085870 -21810.901396    483.552939  5  4  4  73       
PG04   1030.055328 -26086.168986  -4323.504730     55.280622  4  4  2  78       
PG05 -15466.111612   8247.355615  19794.124848   -232.411053  1  5  4  45       
PG06 -20512.962546    684.160531 -16885.347151   -607.408251  5  4  4  77       
PG07  -5899.503208 -14937.960405  21735.647445   -179.202122  2  3  2  75       
PG08   7685.419129 -20196.995413  14922.117198    452.163407  2  4  3  88       
PG09  -7298.115410 -24881.553521   5473.179372    755.079439  4  3  5  82       
PG10  24157.207220  11465.979914    736.336550   -587.566810  7  5  4  84       
PG11 -23406.788084  11226.320339  -5368.889074   -356.025901  5  2  5  73       
PG12  -3919.777216  15152.073977 -21747.717766   -607.880036  5  3  3  63       
PG14 -23031.027252 -13159.030202   3387.212865    744.916556  8  7  5  59       
PG15  -4326.565355  21697.742653  14114.853684    407.515502  4  3  3  79       
PG16  20212.201689  -2494.120245  16883.280932    254.441147  6  5  5  87       
PG17 -12714.765098 -15594.912363 -16830.535077   -124.637560  5  5  2  65       
PG18   7506.565979  13045.625811  21922.702110   -364.159805  4  2  5  79       
PG19 -15049.649286  -5661.559541 -21284.804231    698.522011  6  5  2  80       
PG20 -10985.552892  15612.177489  18543.677931    132.822037  5  6  3  61       
PG21 -21932.221465   1321.898934  14958.507724 999999.999999 12 11  6           
PG22 -23828.003209 -10937.968173  -2669.843473    -10.275782  5  6  5  80       
PG23  17372.477723  16052.581619  12431.145511    642.071464  8  4  7  62       
PG24 -12461.515950  21339.089645  -9774.961549    -11.887466  4  4  6  80       
PG25  10271.531334  17716.065671 -17431.520639    426.250583  7  4  7  68       
PG26  25605.909734   2677.741518   7092.438452   -359.775889  8  5  5  82       
PG27  13269.437671  -9968.039067  20275.909284   -130.066079  3  3  3  74       
PG28  20264.348898   -595.985786 -17162.394834   -542.307677  6  5  4  52       
PG29   4102.788046  25770.693899   4430.124397   -330.510155  3  2  4  80       
PG30 -16777.079447  -5824.103380  20027.024822    205.651846  4  3  4  45       
PG31  23623.151697  -8193.901178  -9680.828703   -152.192539  3  2  3  60       
PG32  14601.132517  10795.180109 -19169.814366     28.931129  6  4  4  77       
*  2026  4 30 10 15  0.00000000
PG01  11506.453491 -19876.554144 -13279.061601    286.132947  3  3  5  68       
PG02  17536.892963 -19406.451622  -1755.778592     89.170680  3  3  4  38       
PG03   2546.559225 -14531.255259 -22293.747155    483.539414  5  4  3  84       
PG04   1330.910155 -25454.398861  -7109.220894     55.281888  4  4  2  64       
PG05 -17521.991556   7427.445681  18370.244933   -232.411515  2  5  5  62       
PG06 -18947.397644   -613.586340 -18608.885845   -607.405737  5  4  4  80       
PG07  -4026.519672 -16327.701829  21102.328836   -179.206054  2  4  3  59       
PG08   8278.808255 -18407.257740  16820.373360    452.156924  2  4  4  78       
PG09  -7137.935601 -25393.065202   2654.465890    755.075997  3  2  4  66       
PG10  23906.364996  11505.913465   3622.805862   -587.565287  7  4  4  75       
PG11 -22917.862651  10574.185007  -8092.877170   -356.014560  6  3  5  77       
PG12  -6123.921078  14108.762608 -21942.502041   -607.879546  5  4  3  71       
PG14 -22436.306743 -13209.369314   6119.479975    744.917615  8  7  4  53       
PG15  -5114.549372  20037.847180  16095.126841    407.518501  5  3  3  74       
PG16  21813.284028  -1506.832374  14980.950539    254.447496  6  4  4  79       
PG17 -12680.894894 -17492.524130 -14898.854523   -124.645063  5  5  2  67       
PG18   5508.481918  14510.309208  21567.800765   -364.151394  3  2  5  75       
PG19 -15106.232902  -8030.264454 -20513.471799    698.522774  6  5  2  96       
PG20 -11462.734457  13476.186792  19883.567250    132.838091  5  6  3  61       
PG21 -23317.332913    533.385988  12752.536648 999999.999999 12 10  8           
PG22 -23856.329085 -11276.138917    194.419185    -10.269856  5  6  5  61       
PG23  15900.293476  15625.871872  14722.224955    642.075362  7  4  7  77       
PG24 -13339.077142  21756.473613  -7182.308958    -11.871163  4  4  5  78       
PG25   8339.628715  17148.506921 -18973.934270    426.248011  6  4  7  82       
PG26  26177.254909   3160.068422   4429.132622   -359.779819  8  5  5  74       
PG27  13756.023990  -7566.540956  21003.586157   -130.081579  3  3  3  77       
PG28  18774.490252    828.382031 -18769.563133   -542.298727  6  5  4  15       
PG29   3863.722636  26139.519497   1592.186168   -330.503560  3  1  4  85       
PG30 -15039.081664  -7336.056181  20877.925791    205.663991  4  3  4  58       
PG31  22788.889929  -7304.476374 -12126.510013   -152.190372  3  2  4  52       
PG32  14811.442714  12939.694581 -17658.483208     28.949069  6  4  4  67       
EOF
